[{"OBJECT_NAME":"ONEWEB-0258","OBJECT_ID":"2021-060K","EPOCH":"2026-06-04T15:22:49.236096","MEAN_MOTION":13.16592981,"ECCENTRICITY":0.0002023,"INCLINATION":87.9105,"RA_OF_ASC_NODE":231.2742,"ARG_OF_PERICENTER":101.0303,"MEAN_ANOMALY":259.1055,"EPHEMERIS_TYPE":0,"CLASSIFICATION_TYPE":"U","NORAD_CAT_ID":48976,"ELEMENT_SET_NO":999,"REV_AT_EPOCH":23794,"BSTAR":5.0071e-05,"MEAN_MOTION_DOT":3.2e-07,"MEAN_MOTION_DDOT":0.0},{"OBJECT_NAME":"ONEWEB-0259","OBJECT_ID":"2021-060L","EPOCH":"2026-06-04T15:13:42.496896","MEAN_MOTION":13.1659372,"ECCENTRICITY":0.0001929,"INCLINATION":87.9102,"RA_OF_ASC_NODE":231.2747,"ARG_OF_PERICENTER":102.922,"MEAN_ANOMALY":257.2127,"EPHEMERIS_TYPE":0,"CLASSIFICATION_TYPE":"U","NORAD_CAT_ID":48977,"ELEMENT_SET_NO":999,"REV_AT_EPOCH":23797,"BSTAR":-3.3802e-05,"MEAN_MOTION_DOT":0.0,"MEAN_MOTION_DDOT":0.0},{"OBJECT_NAME":"ONEWEB-0260","OBJECT_ID":"2021-060M","EPOCH":"2026-06-04T05:53:58.348608","MEAN_MOTION":13.16593613,"ECCENTRICITY":0.0002146,"INCLINATION":87.9089,"RA_OF_ASC_NODE":231.3526,"ARG_OF_PERICENTER":91.1713,"MEAN_ANOMALY":268.9664,"EPHEMERIS_TYPE":0,"CLASSIFICATION_TYPE":"U","NORAD_CAT_ID":48978,"ELEMENT_SET_NO":999,"REV_AT_EPOCH":23790,"BSTAR":-6.8491e-05,"MEAN_MOTION_DOT":-1.3e-07,"MEAN_MOTION_DDOT":0.0},{"OBJECT_NAME":"ONEWEB-0261","OBJECT_ID":"2021-060N","EPOCH":"2026-06-04T16:07:16.193280","MEAN_MOTION":13.16595572,"ECCENTRICITY":0.0001697,"INCLINATION":87.9101,"RA_OF_ASC_NODE":231.2687,"ARG_OF_PERICENTER":94.6857,"MEAN_ANOMALY":265.4468,"EPHEMERIS_TYPE":0,"CLASSIFICATION_TYPE":"U","NORAD_CAT_ID":48979,"ELEMENT_SET_NO":999,"REV_AT_EPOCH":23801,"BSTAR":-3.8727e-06,"MEAN_MOTION_DOT":1.1e-07,"MEAN_MOTION_DDOT":0.0},{"OBJECT_NAME":"ONEWEB-0262","OBJECT_ID":"2021-060P","EPOCH":"2026-06-04T15:38:47.055264","MEAN_MOTION":13.16593856,"ECCENTRICITY":0.0001875,"INCLINATION":87.9101,"RA_OF_ASC_NODE":231.2593,"ARG_OF_PERICENTER":105.9215,"MEAN_ANOMALY":254.2122,"EPHEMERIS_TYPE":0,"CLASSIFICATION_TYPE":"U","NORAD_CAT_ID":48980,"ELEMENT_SET_NO":999,"REV_AT_EPOCH":23797,"BSTAR":0.00014509,"MEAN_MOTION_DOT":6.8e-07,"MEAN_MOTION_DDOT":0.0},{"OBJECT_NAME":"ONEWEB-0263","OBJECT_ID":"2021-060Q","EPOCH":"2026-06-04T05:27:45.967104","MEAN_MOTION":13.1659453,"ECCENTRICITY":0.0001711,"INCLINATION":87.9106,"RA_OF_ASC_NODE":231.3544,"ARG_OF_PERICENTER":100.431,"MEAN_ANOMALY":259.7014,"EPHEMERIS_TYPE":0,"CLASSIFICATION_TYPE":"U","NORAD_CAT_ID":48981,"ELEMENT_SET_NO":999,"REV_AT_EPOCH":23788,"BSTAR":0.00011807,"MEAN_MOTION_DOT":5.8e-07,"MEAN_MOTION_DDOT":0.0},{"OBJECT_NAME":"ONEWEB-0264","OBJECT_ID":"2021-060R","EPOCH":"2026-06-04T15:28:31.920960","MEAN_MOTION":13.16593446,"ECCENTRICITY":0.0001923,"INCLINATION":87.9099,"RA_OF_ASC_NODE":231.2753,"ARG_OF_PERICENTER":91.3768,"MEAN_ANOMALY":268.7583,"EPHEMERIS_TYPE":0,"CLASSIFICATION_TYPE":"U","NORAD_CAT_ID":48982,"ELEMENT_SET_NO":999,"REV_AT_EPOCH":23794,"BSTAR":0.00011402,"MEAN_MOTION_DOT":5.6e-07,"MEAN_MOTION_DDOT":0.0},{"OBJECT_NAME":"ONEWEB-0266","OBJECT_ID":"2021-060T","EPOCH":"2026-06-04T15:59:17.879424","MEAN_MOTION":13.16593393,"ECCENTRICITY":0.0002059,"INCLINATION":87.9106,"RA_OF_ASC_NODE":231.2612,"ARG_OF_PERICENTER":99.6593,"MEAN_ANOMALY":260.477,"EPHEMERIS_TYPE":0,"CLASSIFICATION_TYPE":"U","NORAD_CAT_ID":48984,"ELEMENT_SET_NO":999,"REV_AT_EPOCH":23793,"BSTAR":7.4979e-05,"MEAN_MOTION_DOT":4.2e-07,"MEAN_MOTION_DDOT":0.0},{"OBJECT_NAME":"ONEWEB-0267","OBJECT_ID":"2021-060U","EPOCH":"2026-06-04T05:18:38.890080","MEAN_MOTION":13.16594599,"ECCENTRICITY":0.0001854,"INCLINATION":87.9107,"RA_OF_ASC_NODE":231.3454,"ARG_OF_PERICENTER":95.8125,"MEAN_ANOMALY":264.3217,"EPHEMERIS_TYPE":0,"CLASSIFICATION_TYPE":"U","NORAD_CAT_ID":48985,"ELEMENT_SET_NO":999,"REV_AT_EPOCH":23788,"BSTAR":0.0002561,"MEAN_MOTION_DOT":1.11e-06,"MEAN_MOTION_DDOT":0.0},{"OBJECT_NAME":"ONEWEB-0268","OBJECT_ID":"2021-060V","EPOCH":"2026-06-04T15:29:39.660288","MEAN_MOTION":13.16594984,"ECCENTRICITY":0.0002089,"INCLINATION":87.9105,"RA_OF_ASC_NODE":231.2718,"ARG_OF_PERICENTER":95.6103,"MEAN_ANOMALY":264.5266,"EPHEMERIS_TYPE":0,"CLASSIFICATION_TYPE":"U","NORAD_CAT_ID":48986,"ELEMENT_SET_NO":999,"REV_AT_EPOCH":23820,"BSTAR":0.00019109000000000002,"MEAN_MOTION_DOT":8.6e-07,"MEAN_MOTION_DDOT":0.0},{"OBJECT_NAME":"ONEWEB-0269","OBJECT_ID":"2021-060W","EPOCH":"2026-06-04T05:55:07.559328","MEAN_MOTION":13.16591031,"ECCENTRICITY":0.0002217,"INCLINATION":87.9096,"RA_OF_ASC_NODE":231.3536,"ARG_OF_PERICENTER":101.0133,"MEAN_ANOMALY":259.1248,"EPHEMERIS_TYPE":0,"CLASSIFICATION_TYPE":"U","NORAD_CAT_ID":48987,"ELEMENT_SET_NO":999,"REV_AT_EPOCH":23792,"BSTAR":0.00094802,"MEAN_MOTION_DOT":3.75e-06,"MEAN_MOTION_DDOT":0.0},{"OBJECT_NAME":"ONEWEB-0270","OBJECT_ID":"2021-060X","EPOCH":"2026-06-04T15:27:23.156928","MEAN_MOTION":13.16593621,"ECCENTRICITY":0.0001681,"INCLINATION":87.9103,"RA_OF_ASC_NODE":231.2737,"ARG_OF_PERICENTER":102.5503,"MEAN_ANOMALY":257.5816,"EPHEMERIS_TYPE":0,"CLASSIFICATION_TYPE":"U","NORAD_CAT_ID":48988,"ELEMENT_SET_NO":999,"REV_AT_EPOCH":23801,"BSTAR":7.0282e-05,"MEAN_MOTION_DOT":4e-07,"MEAN_MOTION_DDOT":0.0},{"OBJECT_NAME":"ONEWEB-0271","OBJECT_ID":"2021-060Y","EPOCH":"2026-06-04T15:09:08.588160","MEAN_MOTION":13.16594479,"ECCENTRICITY":0.0001822,"INCLINATION":87.9107,"RA_OF_ASC_NODE":231.2667,"ARG_OF_PERICENTER":97.9019,"MEAN_ANOMALY":262.2319,"EPHEMERIS_TYPE":0,"CLASSIFICATION_TYPE":"U","NORAD_CAT_ID":48989,"ELEMENT_SET_NO":999,"REV_AT_EPOCH":23801,"BSTAR":0.00019932,"MEAN_MOTION_DOT":8.9e-07,"MEAN_MOTION_DDOT":0.0},{"OBJECT_NAME":"ONEWEB-0272","OBJECT_ID":"2021-060Z","EPOCH":"2026-06-04T15:41:02.641056","MEAN_MOTION":13.16595505,"ECCENTRICITY":0.0001955,"INCLINATION":87.9103,"RA_OF_ASC_NODE":231.2741,"ARG_OF_PERICENTER":89.0057,"MEAN_ANOMALY":271.1298,"EPHEMERIS_TYPE":0,"CLASSIFICATION_TYPE":"U","NORAD_CAT_ID":48990,"ELEMENT_SET_NO":999,"REV_AT_EPOCH":23796,"BSTAR":0.00015356000000000001,"MEAN_MOTION_DOT":7.2e-07,"MEAN_MOTION_DDOT":0.0},{"OBJECT_NAME":"ONEWEB-0273","OBJECT_ID":"2021-060AA","EPOCH":"2026-06-04T05:16:22.168128","MEAN_MOTION":13.165945,"ECCENTRICITY":0.0001902,"INCLINATION":87.9106,"RA_OF_ASC_NODE":231.3582,"ARG_OF_PERICENTER":101.5078,"MEAN_ANOMALY":258.6266,"EPHEMERIS_TYPE":0,"CLASSIFICATION_TYPE":"U","NORAD_CAT_ID":48991,"ELEMENT_SET_NO":999,"REV_AT_EPOCH":23788,"BSTAR":0.00018782,"MEAN_MOTION_DOT":8.5e-07,"MEAN_MOTION_DDOT":0.0},{"OBJECT_NAME":"ONEWEB-0274","OBJECT_ID":"2021-060AB","EPOCH":"2026-06-04T05:52:49.753056","MEAN_MOTION":13.16593413,"ECCENTRICITY":0.0002028,"INCLINATION":87.908,"RA_OF_ASC_NODE":231.3546,"ARG_OF_PERICENTER":90.4123,"MEAN_ANOMALY":269.724,"EPHEMERIS_TYPE":0,"CLASSIFICATION_TYPE":"U","NORAD_CAT_ID":48992,"ELEMENT_SET_NO":999,"REV_AT_EPOCH":23792,"BSTAR":-9.5882e-05,"MEAN_MOTION_DOT":-2.4e-07,"MEAN_MOTION_DDOT":0.0}]