ONEWEB-0258             
1 48976U 21060K   26155.64084764  .00000032  00000+0  50071-4 0  9992
2 48976  87.9105 231.2742 0002023 101.0303 259.1055 13.16592981237949
ONEWEB-0259             
1 48977U 21060L   26155.63451964  .00000000  00000+0 -33802-4 0  9991
2 48977  87.9102 231.2747 0001929 102.9220 257.2127 13.16593720237978
ONEWEB-0260             
1 48978U 21060M   26155.24581422 -.00000013  00000+0 -68491-4 0  9999
2 48978  87.9089 231.3526 0002146  91.1713 268.9664 13.16593613237906
ONEWEB-0261             
1 48979U 21060N   26155.67171520  .00000011  00000+0 -38727-5 0  9998
2 48979  87.9101 231.2687 0001697  94.6857 265.4468 13.16595572238019
ONEWEB-0262             
1 48980U 21060P   26155.65193351  .00000068  00000+0  14509-3 0  9995
2 48980  87.9101 231.2593 0001875 105.9215 254.2122 13.16593856237979
ONEWEB-0263             
1 48981U 21060Q   26155.22761536  .00000058  00000+0  11807-3 0  9992
2 48981  87.9106 231.3544 0001711 100.4310 259.7014 13.16594530237887
ONEWEB-0264             
1 48982U 21060R   26155.64481390  .00000056  00000+0  11402-3 0  9995
2 48982  87.9099 231.2753 0001923  91.3768 268.7583 13.16593446237943
ONEWEB-0266             
1 48984U 21060T   26155.66617916  .00000042  00000+0  74979-4 0  9998
2 48984  87.9106 231.2612 0002059  99.6593 260.4770 13.16593393237933
ONEWEB-0267             
1 48985U 21060U   26155.22128345  .00000111  00000+0  25610-3 0  9998
2 48985  87.9107 231.3454 0001854  95.8125 264.3217 13.16594599237883
ONEWEB-0268             
1 48986U 21060V   26155.64559792  .00000086  00000+0  19109-3 0  9996
2 48986  87.9105 231.2718 0002089  95.6103 264.5266 13.16594984238200
ONEWEB-0269             
1 48987U 21060W   26155.24661527  .00000375  00000+0  94802-3 0  9997
2 48987  87.9096 231.3536 0002217 101.0133 259.1248 13.16591031237925
ONEWEB-0270             
1 48988U 21060X   26155.64401802  .00000040  00000+0  70282-4 0  9996
2 48988  87.9103 231.2737 0001681 102.5503 257.5816 13.16593621238019
ONEWEB-0271             
1 48989U 21060Y   26155.63134940  .00000089  00000+0  19932-3 0  9999
2 48989  87.9107 231.2667 0001822  97.9019 262.2319 13.16594479238015
ONEWEB-0272             
1 48990U 21060Z   26155.65350279  .00000072  00000+0  15356-3 0  9996
2 48990  87.9103 231.2741 0001955  89.0057 271.1298 13.16595505237966
ONEWEB-0273             
1 48991U 21060AA  26155.21970102  .00000085  00000+0  18782-3 0  9992
2 48991  87.9106 231.3582 0001902 101.5078 258.6266 13.16594500237889
ONEWEB-0274             
1 48992U 21060AB  26155.24502029 -.00000024  00000+0 -95882-4 0  9997
2 48992  87.9080 231.3546 0002028  90.4123 269.7240 13.16593413237920
